NORAD_CAT_ID,OBJECT_NAME,OBJECT_TYPE,EPOCH,MEAN_MOTION,ECCENTRICITY,INCLINATION,RA_OF_ASC_NODE,ARG_OF_PERICENTER,MEAN_ANOMALY,BSTAR,MEAN_MOTION_DOT,MEAN_MOTION_DDOT,TLE_LINE0,TLE_LINE1,TLE_LINE2,SEMIMAJOR_AXIS,PERIOD,APOGEE,PERIGEE,DECAYED
52476.0,STARLINK-3835,PAYLOAD,2023-09-20 09:14:31,15.08840714,0.0001082,53.2158,135.1576,106.4272,253.6839,-6.4429e-05,-1.313e-05,0.0,0 STARLINK-3835,1 52476U 22049AB  23263.38509259 -.00001313  00000-0 -64429-4 0  9997,2 52476  53.2158 135.1576 0001082 106.4272 253.6839 15.08840714 76480,6917.878,95.438,540.492,538.995,0.0
52476.0,STARLINK-3835,PAYLOAD,2023-09-20 18:46:51,15.08826871,0.0001782,53.2155,133.3726,109.309,250.8095,-0.00034591,-5.787e-05,0.0,0 STARLINK-3835,1 52476U 22049AB  23263.78254038 -.00005787  00000-0 -34591-3 0  9998,2 52476  53.2155 133.3726 0001782 109.3090 250.8095 15.08826871 76549,6917.921,95.438,541.018,538.553,0.0
52476.0,STARLINK-3835,PAYLOAD,2023-09-20 21:57:38,15.08823588,0.00016,53.2159,132.7787,108.557,251.5596,-0.00033114,-5.552e-05,0.0,0 STARLINK-3835,1 52476U 22049AB  23263.91502440 -.00005552  00000-0 -33114-3 0  9996,2 52476  53.2159 132.7787 0001600 108.5570 251.5596 15.08823588 77644,6917.931,95.439,540.902,538.689,0.0
52476.0,STARLINK-3835,PAYLOAD,2023-09-21 01:08:24,15.08825456,0.0001612,53.2162,132.183,112.1371,247.9792,-0.00022147,-3.81e-05,0.0,0 STARLINK-3835,1 52476U 22049AB  23264.04750745 -.00003810  00000-0 -22147-3 0  9993,2 52476  53.2162 132.1830 0001612 112.1371 247.9792 15.08825456 77669,6917.925,95.438,540.905,538.675,0.0
52476.0,STARLINK-3835,PAYLOAD,2023-09-21 18:37:38,15.08838495,0.0001737,53.217,128.9111,124.8695,235.2461,-6.2683e-05,-1.286e-05,0.0,0 STARLINK-3835,1 52476U 22049AB  23264.77614407 -.00001286  00000-0 -62683-4 0  9992,2 52476  53.2170 128.9111 0001737 124.8695 235.2461 15.08838495 76692,6917.885,95.438,540.952,538.548,0.0
52476.0,STARLINK-3835,PAYLOAD,2023-09-21 21:48:25,15.08841949,0.0001472,53.2163,128.3192,97.7279,262.3881,5.7004e-05,6.19e-06,0.0,0 STARLINK-3835,1 52476U 22049AB  23264.90862496  .00000619  00000-0  57004-4 0  9998,2 52476  53.2163 128.3192 0001472  97.7279 262.3881 15.08841949 77796,6917.874,95.437,540.758,538.721,0.0
52476.0,STARLINK-3835,PAYLOAD,2023-09-22 00:59:11,15.08844412,0.0001467,53.2162,127.724,100.5616,259.5542,0.00034207,5.161e-05,0.0,0 STARLINK-3835,1 52476U 22049AB  23265.04110678  .00005161  00000-0  34207-3 0  9998,2 52476  53.2162 127.7240 0001467 100.5616 259.5542 15.08844412 77817,6917.867,95.437,540.747,538.717,0.0
52476.0,STARLINK-3835,PAYLOAD,2023-09-22 21:39:12,15.08856434,0.0001449,53.2163,123.859,104.6362,255.479,0.00061775,9.562e-05,0.0,0 STARLINK-3835,1 52476U 22049AB  23265.90222670  .00009562  00000-0  61775-3 0  9998,2 52476  53.2163 123.8590 0001449 104.6362 255.4790 15.08856434 77947,6917.83,95.437,540.698,538.693,0.0
52476.0,STARLINK-3835,PAYLOAD,2023-09-23 18:19:13,15.08843439,0.0001316,53.216,119.995,104.4489,255.6649,7.9668e-05,9.8e-06,0.0,0 STARLINK-3835,1 52476U 22049AB  23266.76334646  .00000980  00000-0  79668-4 0  9996,2 52476  53.2160 119.9950 0001316 104.4489 255.6649 15.08843439 76991,6917.87,95.437,540.645,538.824,0.0
52476.0,STARLINK-3835,PAYLOAD,2023-09-24 02:16:08,15.08848187,0.0001264,53.216,118.5056,93.4833,266.6303,0.00010554,1.393e-05,0.0,0 STARLINK-3835,1 52476U 22049AB  23267.09454458  .00001393  00000-0  10554-3 0  9994,2 52476  53.2160 118.5056 0001264  93.4833 266.6303 15.08848187 78126,6917.855,95.437,540.595,538.846,0.0
52476.0,STARLINK-3835,PAYLOAD,2023-09-24 19:45:23,15.08838433,0.0001376,53.2161,115.2359,80.4798,279.635,-1.1566e-05,-4.72e-06,0.0,0 STARLINK-3835,1 52476U 22049AB  23267.82318986 -.00000472  00000-0 -11566-4 0  9994,2 52476  53.2161 115.2359 0001376  80.4798 279.6350 15.08838433 77158,6917.885,95.438,540.702,538.798,0.0
52476.0,STARLINK-3835,PAYLOAD,2023-09-24 21:20:46,15.08840731,0.0001415,53.2165,114.9387,74.6263,285.4886,1.5469e-05,-4.2e-07,0.0,0 STARLINK-3835,1 52476U 22049AB  23267.88942876 -.00000042  00000-0  15469-4 0  9999,2 52476  53.2165 114.9387 0001415  74.6263 285.4886 15.08840731 78249,6917.878,95.438,540.722,538.764,0.0
52476.0,STARLINK-3835,PAYLOAD,2023-09-25 06:53:05,15.08842988,0.0001297,53.2164,113.1515,90.1771,269.937,8.5862e-06,-1.51e-06,0.0,0 STARLINK-3835,1 52476U 22049AB  23268.28686587 -.00000151  00000-0  85862-5 0  9994,2 52476  53.2164 113.1515 0001297  90.1771 269.9370 15.08842988 78305,6917.871,95.437,540.634,538.839,0.0
52476.0,STARLINK-3835,PAYLOAD,2023-09-25 21:11:33,15.08846725,0.0001355,53.2165,110.4748,95.2297,264.885,0.00021129,3.077e-05,0.0,0 STARLINK-3835,1 52476U 22049AB  23268.88302559  .00003077  00000-0  21129-3 0  9997,2 52476  53.2165 110.4748 0001355  95.2297 264.8850 15.08846725 78397,6917.86,95.437,540.662,538.787,0.0
52476.0,STARLINK-3835,PAYLOAD,2023-09-26 13:05:25,15.08832232,0.0001227,53.2162,107.5019,95.5992,264.514,2.6567e-05,1.35e-06,0.0,0 STARLINK-3835,1 52476U 22049AB  23269.54543451  .00000135  00000-0  26567-4 0  9993,2 52476  53.2162 107.5019 0001227  95.5992 264.5140 15.08832232 78493,6917.904,95.438,540.618,538.92,0.0
52476.0,STARLINK-3835,PAYLOAD,2023-09-26 17:51:34,15.08834795,0.0001299,53.2157,106.6098,97.5055,262.6085,-1.6431e-05,-5.49e-06,0.0,0 STARLINK-3835,1 52476U 22049AB  23269.74415461 -.00000549  00000-0 -16431-4 0  9994,2 52476  53.2157 106.6098 0001299  97.5055 262.6085 15.08834795 77442,6917.896,95.438,540.66,538.863,0.0
52476.0,STARLINK-3835,PAYLOAD,2023-09-26 21:02:21,15.08837618,0.0001396,53.2158,106.0146,89.3105,270.8047,5.6748e-05,6.15e-06,0.0,0 STARLINK-3835,1 52476U 22049AB  23269.87663472  .00000615  00000-0  56748-4 0  9992,2 52476  53.2158 106.0146 0001396  89.3105 270.8047 15.08837618 78542,6917.888,95.438,540.718,538.787,0.0
52476.0,STARLINK-3835,PAYLOAD,2023-09-27 12:56:12,15.08837269,0.0001263,53.2154,103.0417,87.8145,272.2992,0.00013244,1.82e-05,0.0,0 STARLINK-3835,1 52476U 22049AB  23270.53903752  .00001820  00000-0  13244-3 0  9997,2 52476  53.2154 103.0417 0001263  87.8145 272.2992 15.08837269 78644,6917.889,95.438,540.627,538.88,0.0
52476.0,STARLINK-3835,PAYLOAD,2023-09-27 19:17:45,15.08844608,0.0001409,53.2153,101.8528,86.581,273.5343,0.00013404,1.846e-05,0.0,0 STARLINK-3835,1 52476U 22049AB  23270.80399493  .00001846  00000-0  13404-3 0  9994,2 52476  53.2153 101.8528 0001409  86.5810 273.5343 15.08844608 77603,6917.866,95.437,540.706,538.757,0.0
52476.0,STARLINK-3835,PAYLOAD,2023-09-28 12:46:59,15.08845731,0.0001516,53.215,98.5815,83.111,277.0055,0.00027614,4.11e-05,0.0,0 STARLINK-3835,1 52476U 22049AB  23271.53263589  .00004110  00000-0  27614-3 0  9996,2 52476  53.2150  98.5815 0001516  83.1110 277.0055 15.08845731 78794,6917.863,95.437,540.777,538.679,0.0
52476.0,STARLINK-3835,PAYLOAD,2023-09-28 19:08:32,15.08849404,0.0001491,53.2151,97.392,82.8518,277.2644,0.00030067,4.502e-05,0.0,0 STARLINK-3835,1 52476U 22049AB  23271.79759378  .00004502  00000-0  30067-3 0  9991,2 52476  53.2151  97.3920 0001491  82.8518 277.2644 15.08849404 78831,6917.852,95.437,540.748,538.685,0.0
52476.0,STARLINK-3835,PAYLOAD,2023-09-29 12:37:46,15.08848368,0.0001607,53.2157,94.1223,78.5737,281.5436,0.00014854,2.077e-05,0.0,0 STARLINK-3835,1 52476U 22049AB  23272.52623169  .00002077  00000-0  14854-3 0  9992,2 52476  53.2157  94.1223 0001607  78.5737 281.5436 15.08848368 77869,6917.855,95.437,540.832,538.608,0.0
52476.0,STARLINK-3835,PAYLOAD,2023-09-29 17:23:59,15.08772143,0.000137,53.2159,93.23,75.0224,285.092,-0.00095743,-0.00015465,0.0,0 STARLINK-3835,1 52476U 22049AB  23272.72499004 -.00015465  00000-0 -95743-3 0  9996,2 52476  53.2159  93.2300 0001370  75.0224 285.0920 15.08772143 77894,6918.088,95.442,540.901,539.005,0.0
52476.0,STARLINK-3835,PAYLOAD,2023-09-29 22:10:12,15.08691305,0.0001511,53.2163,92.3386,87.4629,272.6536,-0.0020581,-0.00032761,0.0,0 STARLINK-3835,1 52476U 22049AB  23272.92376107 -.00032761  00000-0 -20581-2 0  9991,2 52476  53.2163  92.3386 0001511  87.4629 272.6536 15.08691305 77925,6918.335,95.447,541.245,539.155,0.0
52476.0,STARLINK-3835,PAYLOAD,2023-09-30 18:50:56,15.08084064,0.0001405,53.2166,88.4759,90.1853,269.93,-0.0089476,-0.00137128,0.0,0 STARLINK-3835,1 52476U 22049AB  23273.78537971 -.00137128  00000-0 -89476-2 0  9995,2 52476  53.2166  88.4759 0001405  90.1853 269.9300 15.08084064 78051,6920.192,95.485,543.029,541.085,0.0
52476.0,STARLINK-3835,PAYLOAD,2023-10-01 04:23:41,15.07886698,0.0001894,53.216,86.6914,78.4981,281.6224,-0.0097415,-0.00148244,0.0,0 STARLINK-3835,1 52476U 22049AB  23274.18312152 -.00148244  00000-0 -97415-2 0  9995,2 52476  53.2160  86.6914 0001894  78.4981 281.6224 15.07886698 78116,6920.796,95.498,543.972,541.35,0.0
52476.0,STARLINK-3835,PAYLOAD,2023-10-01 14:00:01,15.07223121,0.0001297,53.216,84.8986,92.2809,280.92,-0.002114,-0.00032333,0.0,0 STARLINK-3835,1 52476U 22049AB  23274.58334491 -.00032333  00000-0 -21140-2 0  9992,2 52476  53.2160  84.8986 0001297  92.2809 280.9200 15.07223121 78173,6922.827,95.54,545.59,543.794,0.0
52476.0,STARLINK-3835,PAYLOAD,2023-10-01 22:00:00,15.07177894,0.0001246,53.2158,83.4073,81.6003,301.2454,0.0023539,0.00035702,0.0,0 STARLINK-3835,1 52476U 22049AB  23274.91667824  .00035702  00000-0  23539-2 0  9993,2 52476  53.2158  83.4073 0001246  81.6003 301.2454 15.07177894  5841,6922.965,95.543,545.693,543.968,0.0
52476.0,STARLINK-3835,PAYLOAD,2023-10-02 06:00:00,15.07187014,0.0001172,53.2158,81.913,91.6453,300.8196,0.0018967,0.00028691,0.0,0 STARLINK-3835,1 52476U 22049AB  23275.25001157  .00028691  00000-0  18967-2 0  9990,2 52476  53.2158  81.9130 0001172  91.6453 300.8196 15.07187014 78276,6922.938,95.542,545.614,543.991,0.0
52476.0,STARLINK-3835,PAYLOAD,2023-10-02 22:00:00,15.07180023,0.0001162,53.2158,78.9296,86.1476,325.5934,0.0017296,0.00026124,0.0,0 STARLINK-3835,1 52476U 22049AB  23275.91667824  .00026124  00000-0  17296-2 0  9995,2 52476  53.2158  78.9296 0001162  86.1476 325.5934 15.07180023 78376,6922.959,95.543,545.628,544.019,0.0
